[{"OBJECT_NAME":"STARLINK-31976","OBJECT_ID":"2024-100C","EPOCH":"2026-03-09T12:14:46.048416","MEAN_MOTION":15.27599527,"ECCENTRICITY":0.00017707,"INCLINATION":43.0015,"RA_OF_ASC_NODE":130.3389,"ARG_OF_PERICENTER":234.8036,"MEAN_ANOMALY":125.265,"EPHEMERIS_TYPE":0,"CLASSIFICATION_TYPE":"U","NORAD_CAT_ID":59887,"ELEMENT_SET_NO":999,"REV_AT_EPOCH":10108,"BSTAR":-0.00016273516,"MEAN_MOTION_DOT":-4.74e-5,"MEAN_MOTION_DDOT":0},{"OBJECT_NAME":"HAWK-11C","OBJECT_ID":"2024-247E","EPOCH":"2026-03-09T12:17:35.407968","MEAN_MOTION":15.2884802,"ECCENTRICITY":0.00059001,"INCLINATION":45.0045,"RA_OF_ASC_NODE":114.8762,"ARG_OF_PERICENTER":329.704,"MEAN_ANOMALY":30.3502,"EPHEMERIS_TYPE":0,"CLASSIFICATION_TYPE":"U","NORAD_CAT_ID":62381,"ELEMENT_SET_NO":999,"REV_AT_EPOCH":6774,"BSTAR":0.00033290115,"MEAN_MOTION_DOT":9.223e-5,"MEAN_MOTION_DDOT":0}]
